{"type": "FeatureCollection", "features": [ {"type": "Feature", "properties": {"norad_id": 32322, "name": "FENGYUN 1C DEB", "group": "fengyun-1c-debris", "lat": 7.8192066237553846, "lon": 44.72813324350919, "alt_km": 957.6136875074926, "timestamp": "2025-12-06T07:31:40.523079+00:00", "meta": {"OBJECT_NAME": "FENGYUN 1C DEB", "OBJECT_ID": "1999-025CXP", "EPOCH": "2025-12-04T11:30:45.940032", "MEAN_MOTION": 13.3411511, "ECCENTRICITY": 0.0418673, "INCLINATION": 98.3703, "RA_OF_ASC_NODE": 222.0644, "ARG_OF_PERICENTER": 118.495, "MEAN_ANOMALY": 245.9008, "EPHEMERIS_TYPE": 0, "CLASSIFICATION_TYPE": "U", "NORAD_CAT_ID": 32322, "ELEMENT_SET_NO": 999, "REV_AT_EPOCH": 60269, "BSTAR": 0.0016191, "MEAN_MOTION_DOT": 1.292e-05, "MEAN_MOTION_DDOT": 0}, "tle": {"line1": "1 32322U 99025CXP 25338.47969838  .00001292  00000+0  16191-2 0  9995", "line2": "2 32322  98.3703 222.0644 0418673 118.4950 245.9008 13.34115110602692"}}, "geometry": {"type": "Point", "coordinates": [44.72813324350919, 7.8192066237553846]}}, {"type": "Feature", "properties": {"norad_id": 32323, "name": "FENGYUN 1C DEB", "group": "fengyun-1c-debris", "lat": 6.936346564847392, "lon": 122.88854906572281, "alt_km": 993.6952331087914, "timestamp": "2025-12-06T07:31:40.523089+00:00", "meta": {"OBJECT_NAME": "FENGYUN 1C DEB", "OBJECT_ID": "1999-025CXQ", "EPOCH": "2025-11-27T08:31:37.777440", "MEAN_MOTION": 13.96310713, "ECCENTRICITY": 0.01563544, "INCLINATION": 98.5696, "RA_OF_ASC_NODE": 115.5941, "ARG_OF_PERICENTER": 252.8199, "MEAN_ANOMALY": 105.5797, "EPHEMERIS_TYPE": 0, "CLASSIFICATION_TYPE": "U", "NORAD_CAT_ID": 32323, "ELEMENT_SET_NO": 999, "REV_AT_EPOCH": 60055, "BSTAR": 0.00293216, "MEAN_MOTION_DOT": 4.437e-05, "MEAN_MOTION_DDOT": 0}, "tle": {"line1": "1 32323U 99025CXQ 25331.35529835  .00004437  00000+0  29322-2 0  9999", "line2": "2 32323  98.5696 115.5941 0156354 252.8199 105.5797 13.96310713600558"}}, "geometry": {"type": "Point", "coordinates": [122.88854906572281, 6.936346564847392]}}, {"type": "Feature", "properties": {"norad_id": 32324, "name": "FENGYUN 1C DEB", "group": "fengyun-1c-debris", "lat": -70.95343515514278, "lon": -127.43245165482108, "alt_km": 900.7140960112647, "timestamp": "2025-12-06T07:31:40.523099+00:00", "meta": {"OBJECT_NAME": "FENGYUN 1C DEB", "OBJECT_ID": "1999-025CXR", "EPOCH": "2025-12-01T05:20:15.314208", "MEAN_MOTION": 14.09115713, "ECCENTRICITY": 0.0050455, "INCLINATION": 99.5337, "RA_OF_ASC_NODE": 76.3137, "ARG_OF_PERICENTER": 55.9833, "MEAN_ANOMALY": 304.6112, "EPHEMERIS_TYPE": 0, "CLASSIFICATION_TYPE": "U", "NORAD_CAT_ID": 32324, "ELEMENT_SET_NO": 999, "REV_AT_EPOCH": 63836, "BSTAR": 0.00061368, "MEAN_MOTION_DOT": 1.029e-05, "MEAN_MOTION_DDOT": 0}, "tle": {"line1": "1 32324U 99025CXR 25335.22239947  .00001029  00000+0  61368-3 0  9993", "line2": "2 32324  99.5337  76.3137 0050455  55.9833 304.6112 14.09115713638366"}}, "geometry": {"type": "Point", "coordinates": [-127.43245165482108, -70.95343515514278]}}, {"type": "Feature", "properties": {"norad_id": 32326, "name": "FENGYUN 1C DEB", "group": "fengyun-1c-debris", "lat": -16.572491196353713, "lon": -87.02277126692363, "alt_km": 1289.3555970881334, "timestamp": "2025-12-06T07:31:40.523110+00:00", "meta": {"OBJECT_NAME": "FENGYUN 1C DEB", "OBJECT_ID": "1999-025CXT", "EPOCH": "2025-11-30T02:32:37.979232", "MEAN_MOTION": 13.69261307, "ECCENTRICITY": 0.03856265, "INCLINATION": 98.486, "RA_OF_ASC_NODE": 264.9459, "ARG_OF_PERICENTER": 173.0082, "MEAN_ANOMALY": 187.6669, "EPHEMERIS_TYPE": 0, "CLASSIFICATION_TYPE": "U", "NORAD_CAT_ID": 32326, "ELEMENT_SET_NO": 999, "REV_AT_EPOCH": 63009, "BSTAR": 0.00044957354, "MEAN_MOTION_DOT": 6.22e-06, "MEAN_MOTION_DDOT": 0}, "tle": {"line1": "1 32326U 99025CXT 25334.10599513  .00000622  00000+0  44957-3 0  9992", "line2": "2 32326  98.4860 264.9459 0385626 173.0082 187.6669 13.69261307630092"}}, "geometry": {"type": "Point", "coordinates": [-87.02277126692363, -16.572491196353713]}}, {"type": "Feature", "properties": {"norad_id": 32331, "name": "FENGYUN 1C DEB", "group": "fengyun-1c-debris", "lat": -53.63417711859531, "lon": 114.37296231898127, "alt_km": 662.4863542719231, "timestamp": "2025-12-06T07:31:40.523120+00:00", "meta": {"OBJECT_NAME": "FENGYUN 1C DEB", "OBJECT_ID": "1999-025CXY", "EPOCH": "2025-11-11T08:35:02.141088", "MEAN_MOTION": 14.68670701, "ECCENTRICITY": 0.0013407, "INCLINATION": 99.1837, "RA_OF_ASC_NODE": 279.0061, "ARG_OF_PERICENTER": 226.0291, "MEAN_ANOMALY": 133.9806, "EPHEMERIS_TYPE": 0, "CLASSIFICATION_TYPE": "U", "NORAD_CAT_ID": 32331, "ELEMENT_SET_NO": 999, "REV_AT_EPOCH": 60157, "BSTAR": 0.0092524, "MEAN_MOTION_DOT": 0.0005428, "MEAN_MOTION_DDOT": 0}, "tle": {"line1": "1 32331U 99025CXY 25315.35766367  .00054280  00000+0  92524-2 0  9998", "line2": "2 32331  99.1837 279.0061 0013407 226.0291 133.9806 14.68670701601572"}}, "geometry": {"type": "Point", "coordinates": [114.37296231898127, -53.63417711859531]}}, {"type": "Feature", "properties": {"norad_id": 32332, "name": "FENGYUN 1C DEB", "group": "fengyun-1c-debris", "lat": 26.68935734334393, "lon": -140.96658399368408, "alt_km": 1110.147525497634, "timestamp": "2025-12-06T07:31:40.523130+00:00", "meta": {"OBJECT_NAME": "FENGYUN 1C DEB", "OBJECT_ID": "1999-025CXZ", "EPOCH": "2025-12-04T10:06:09.509760", "MEAN_MOTION": 13.97065068, "ECCENTRICITY": 0.0284962, "INCLINATION": 99.1336, "RA_OF_ASC_NODE": 32.5118, "ARG_OF_PERICENTER": 335.6886, "MEAN_ANOMALY": 23.1049, "EPHEMERIS_TYPE": 0, "CLASSIFICATION_TYPE": "U", "NORAD_CAT_ID": 32332, "ELEMENT_SET_NO": 999, "REV_AT_EPOCH": 92920, "BSTAR": 0.0025333, "MEAN_MOTION_DOT": 4.945e-05, "MEAN_MOTION_DDOT": 0}, "tle": {"line1": "1 32332U 99025CXZ 25338.42094340  .00004945  00000+0  25333-2 0  9994", "line2": "2 32332  99.1336  32.5118 0284962 335.6886  23.1049 13.97065068929202"}}, "geometry": {"type": "Point", "coordinates": [-140.96658399368408, 26.68935734334393]}}, {"type": "Feature", "properties": {"norad_id": 32334, "name": "FENGYUN 1C DEB", "group": "fengyun-1c-debris", "lat": -58.82736598550453, "lon": -161.00090314114823, "alt_km": 870.2694722482174, "timestamp": "2025-12-06T07:31:40.523140+00:00", "meta": {"OBJECT_NAME": "FENGYUN 1C DEB", "OBJECT_ID": "1999-025CYB", "EPOCH": "2025-12-02T03:00:46.825344", "MEAN_MOTION": 14.01624263, "ECCENTRICITY": 0.00664079, "INCLINATION": 99.2542, "RA_OF_ASC_NODE": 30.3872, "ARG_OF_PERICENTER": 310.7393, "MEAN_ANOMALY": 48.8018, "EPHEMERIS_TYPE": 0, "CLASSIFICATION_TYPE": "U", "NORAD_CAT_ID": 32334, "ELEMENT_SET_NO": 999, "REV_AT_EPOCH": 93791, "BSTAR": 0.00038671814, "MEAN_MOTION_DOT": 5.5e-06, "MEAN_MOTION_DDOT": 0}, "tle": {"line1": "1 32334U 99025CYB 25336.12554196  .00000550  00000+0  38672-3 0  9990", "line2": "2 32334  99.2542  30.3872 0066407 310.7393  48.8018 14.01624263937917"}}, "geometry": {"type": "Point", "coordinates": [-161.00090314114823, -58.82736598550453]}}, {"type": "Feature", "properties": {"norad_id": 32340, "name": "FENGYUN 1C DEB", "group": "fengyun-1c-debris", "lat": -80.99228639149334, "lon": 79.35854593833234, "alt_km": 637.7073589317279, "timestamp": "2025-12-06T07:31:40.523171+00:00", "meta": {"OBJECT_NAME": "FENGYUN 1C DEB", "OBJECT_ID": "1999-025CYH", "EPOCH": "2025-12-03T11:31:05.163168", "MEAN_MOTION": 14.74095933, "ECCENTRICITY": 0.00348923, "INCLINATION": 98.9809, "RA_OF_ASC_NODE": 342.2859, "ARG_OF_PERICENTER": 323.7129, "MEAN_ANOMALY": 36.171, "EPHEMERIS_TYPE": 0, "CLASSIFICATION_TYPE": "U", "NORAD_CAT_ID": 32340, "ELEMENT_SET_NO": 999, "REV_AT_EPOCH": 97060, "BSTAR": 0.0034692662, "MEAN_MOTION_DOT": 0.00023088, "MEAN_MOTION_DDOT": 0}, "tle": {"line1": "1 32340U 99025CYH 25337.47992087  .00023088  00000+0  34693-2 0  9990", "line2": "2 32340  98.9809 342.2859 0034892 323.7129  36.1710 14.74095933970608"}}, "geometry": {"type": "Point", "coordinates": [79.35854593833234, -80.99228639149334]}}, {"type": "Feature", "properties": {"norad_id": 32342, "name": "FENGYUN 1C DEB", "group": "fengyun-1c-debris", "lat": -34.07386390069254, "lon": -4.956837128960301, "alt_km": 849.8110791493, "timestamp": "2025-12-06T07:31:40.523182+00:00", "meta": {"OBJECT_NAME": "FENGYUN 1C DEB", "OBJECT_ID": "1999-025CYK", "EPOCH": "2025-12-04T06:43:58.281024", "MEAN_MOTION": 14.13393554, "ECCENTRICITY": 0.0007927, "INCLINATION": 98.6706, "RA_OF_ASC_NODE": 347.1488, "ARG_OF_PERICENTER": 15.5607, "MEAN_ANOMALY": 50.8805, "EPHEMERIS_TYPE": 0, "CLASSIFICATION_TYPE": "U", "NORAD_CAT_ID": 32342, "ELEMENT_SET_NO": 999, "REV_AT_EPOCH": 93598, "BSTAR": 0.00018731, "MEAN_MOTION_DOT": 3.09e-06, "MEAN_MOTION_DDOT": 0}, "tle": {"line1": "1 32342U 99025CYK 25338.28053566  .00000309  00000+0  18731-3 0  9999", "line2": "2 32342  98.6706 347.1488 0007927  15.5607  50.8805 14.13393554935984"}}, "geometry": {"type": "Point", "coordinates": [-4.956837128960301, -34.07386390069254]}}, {"type": "Feature", "properties": {"norad_id": 32343, "name": "FENGYUN 1C DEB", "group": "fengyun-1c-debris", "lat": -8.216303997576086, "lon": -31.490936408135333, "alt_km": 927.5824331128697, "timestamp": "2025-12-06T07:31:40.523192+00:00", "meta": {"OBJECT_NAME": "FENGYUN 1C DEB", "OBJECT_ID": "1999-025CYL", "EPOCH": "2025-11-23T04:58:45.910848", "MEAN_MOTION": 14.1981282, "ECCENTRICITY": 0.01511129, "INCLINATION": 98.6065, "RA_OF_ASC_NODE": 314.5087, "ARG_OF_PERICENTER": 183.896, "MEAN_ANOMALY": 176.1052, "EPHEMERIS_TYPE": 0, "CLASSIFICATION_TYPE": "U", "NORAD_CAT_ID": 32343, "ELEMENT_SET_NO": 999, "REV_AT_EPOCH": 64436, "BSTAR": 0.00029765257, "MEAN_MOTION_DOT": 6.65e-06, "MEAN_MOTION_DDOT": 0}, "tle": {"line1": "1 32343U 99025CYL 25327.20747582  .00000665  00000+0  29765-3 0  9992", "line2": "2 32343  98.6065 314.5087 0151112 183.8960 176.1052 14.19812820644366"}}, "geometry": {"type": "Point", "coordinates": [-31.490936408135333, -8.216303997576086]}}]}